ONEWEB-0102             
1 47258U 20100A   25301.52626485 -.00000512  00000+0 -14574-2 0  9990
2 47258  87.8978  36.7068 0001902  99.4722 260.6622 13.12442418234340
ONEWEB-0109             
1 47259U 20100B   25301.53437112 -.00000362  00000+0 -10416-2 0  9993
2 47259  87.8977  36.6731 0001850 101.3509 258.7827 13.12441832234179
ONEWEB-0110             
1 47260U 20100C   25301.56034132  .00000468  00000+0  12665-2 0  9996
2 47260  87.8968  36.6512 0001858 110.0747 250.0582 13.12443081234347
ONEWEB-0111             
1 47261U 20100D   25301.28620105 -.00000217  00000+0 -63933-3 0  9996
2 47261  87.8971  36.7233 0001744 101.1925 258.9399 13.12444075234141
ONEWEB-0114             
1 47262U 20100E   25301.54574043  .00000085  00000+0  20175-3 0  9997
2 47262  87.8972  36.6660 0001956  94.2118 265.9234 13.12444060234136
ONEWEB-0117             
1 47263U 20100F   25301.53761426 -.00000217  00000+0 -63958-3 0  9995
2 47263  87.8971  36.6655 0001738 102.9055 257.2268 13.12442370234149
ONEWEB-0118             
1 47264U 20100G   25301.57007206  .00000522  00000+0  14158-2 0  9993
2 47264  87.8971  36.6583 0001745  90.0580 270.0749 13.12442067234340
ONEWEB-0119             
1 47265U 20100H   25301.52139698 -.00000271  00000+0 -78850-3 0  9993
2 47265  87.8970  36.7046 0001808 102.5171 257.6160 13.12441644234315
